     2.100          NAVIGATION                              RINEX VERSION / TYPE
fic2rin                                 12/14/2008 01:36:36 PGM / RUN BY / DATE
                                                            END OF HEADER
 1 08 12 13  8  0  0.0 -.205393414944D-03 -.512727638124D-10  .000000000000D+00
     .130000000000D+02  .130000000000D+02  .558308970095D-08  .215860202342D+01
     .514090061188D-06  .977520656306D-02  .496767461300D-05  .515375389099D+04
     .547200000000D+06  .135973095894D-06  .149334055791D+01 -.651925802231D-07
     .934803985561D+00  .266468750000D+03 -.149207104053D+01 -.824820071352D-08
     .256796410887D-09  .100000000000D+01  .150900000000D+04  .000000000000D+00
     .240000000000D+01  .630000000000D+02 -.232830643654D-08  .130000000000D+02
     .540006000000D+06  .400000000000D+01
 2 08 12 13  8  0  0.0  .167358666658D-03 -.227373675443D-11  .000000000000D+00
     .410000000000D+02 -.962500000000D+01  .495413493103D-08 -.140662869130D+01
    -.460073351860D-06  .885703705717D-02  .948458909988D-05  .515358458138D+04
     .547200000000D+06 -.126659870148D-06  .259817781777D+01 -.102445483208D-06
     .942222405105D+00  .187843750000D+03  .268482916785D+01 -.808747973314D-08
    -.579667002600D-09  .100000000000D+01  .150900000000D+04  .000000000000D+00
     .240000000000D+01  .000000000000D+00 -.172294676304D-07  .410000000000D+02
     .540006000000D+06  .400000000000D+01
 3 08 12 13  8  0  0.0  .324082095176D-03  .522959453519D-11  .000000000000D+00
     .490000000000D+02  .131562500000D+02  .569452291402D-08 -.173734814718D+01
     .720843672752D-06  .115304907085D-01  .525824725628D-05  .515370589256D+04
     .547200000000D+06  .217929482460D-06  .145195855972D+01 -.968575477600D-07
     .925568232626D+00  .256687500000D+03  .882571269425D+00 -.831177479021D-08
     .446804325479D-09  .100000000000D+01  .150900000000D+04  .000000000000D+00
     .240000000000D+01  .000000000000D+00 -.419095158577D-08  .490000000000D+02
     .540006000000D+06  .400000000000D+01
 4 08 12 13  8  0  0.0 -.263117253780D-03 -.127329258248D-10  .000000000000D+00
     .340000000000D+02 -.575000000000D+01  .500627996023D-08  .144669368871D+01
    -.689178705215D-07  .857986335177D-02  .954978168011D-05  .515363367462D+04
     .547200000000D+06 -.115483999252D-06  .261675823350D+01  .391155481339D-07
     .941495311413D+00  .188593750000D+03  .449043162324D+00 -.809069415274D-08
    -.851821196058D-09  .100000000000D+01  .150900000000D+04  .000000000000D+00
     .240000000000D+01  .000000000000D+00 -.605359673500D-08  .340000000000D+02
     .540006000000D+06  .400000000000D+01
 5 08 12 13  8  0  0.0 -.386406667531D-03  .169393388205D-10  .000000000000D+00
     .118000000000D+03 -.682500000000D+02  .463983612494D-08  .102691625230D+01
    -.362657010555D-05  .937500537839D-02  .119302421808D-04  .515365789413D+04
     .547200000000D+06 -.165775418282D-06  .420562173463D+00 -.484287738800D-07
     .944785550225D+00  .141750000000D+03  .129463242593D+01 -.800711924294D-08
     .446447167745D-09  .100000000000D+01  .150900000000D+04  .000000000000D+00
     .685000000000D+01  .000000000000D+00 -.419095158577D-08  .118000000000D+03
     .540006000000D+06  .400000000000D+01
 6 08 12 13  8  0  0.0  .122959725559D-03 -.954969436862D-11  .000000000000D+00
     .800000000000D+01  .903125000000D+01  .564916388178D-08  .818924540203D+00
     .415369868279D-06  .560337875504D-02  .557489693165D-05  .515369765472D+04
     .547200000000D+06 -.484287738800D-07  .151823654606D+01 -.596046447754D-07
     .933066316837D+00  .260656250000D+03 -.150679568989D+01 -.848892502637D-08
     .246438836595D-09  .100000000000D+01  .150900000000D+04  .000000000000D+00
     .240000000000D+01  .000000000000D+00 -.465661287308D-08  .800000000000D+01
     .540006000000D+06  .400000000000D+01
 7 08 12 13  8  0  0.0  .235280022025D-04  .000000000000D+00  .000000000000D+00
     .840000000000D+02 -.178968750000D+03  .432625163432D-08  .310545133851D+01
    -.917725265026D-05  .230800895952D-02  .427477061749D-05  .515369306755D+04
     .547200000000D+06  .223517417908D-07 -.531853754118D+00  .353902578354D-07
     .965370138855D+00  .302062500000D+03  .288350790250D+01 -.811533803640D-08
    -.247867467532D-09  .100000000000D+01  .150900000000D+04  .000000000000D+00
     .240000000000D+01  .000000000000D+00 -.107102096081D-07  .840000000000D+02
     .540006000000D+06  .400000000000D+01
 9 08 12 13  8  0  0.0  .294442288578D-04  .181898940355D-11  .000000000000D+00
     .700000000000D+02 -.162468750000D+03  .399159483738D-08  .213612846084D+01
    -.869855284691D-05  .201057131635D-01  .408850610256D-05  .515366645432D+04
     .547200000000D+06  .217929482460D-06 -.567069815934D+00 -.279396772385D-06
     .974323836796D+00  .305500000000D+03  .145213205303D+01 -.772067874012D-08
    -.271797035723D-09  .100000000000D+01  .150900000000D+04  .000000000000D+00
     .240000000000D+01  .000000000000D+00 -.558793544769D-08  .700000000000D+02
     .540006000000D+06  .400000000000D+01
10 08 12 13  8  0  0.0 -.825896859169D-05 -.454747350886D-12  .000000000000D+00
     .790000000000D+02  .147562500000D+03  .416374486526D-08 -.480246846540D+00
     .783056020737D-05  .830668746494D-02  .919215381145D-05  .515375777626D+04
     .547200000000D+06  .104308128357D-06 -.260218425007D+01  .106170773506D-06
     .961103669940D+00  .201406250000D+03  .567740800866D+00 -.794140221985D-08
     .135719938995D-10  .100000000000D+01  .150900000000D+04  .000000000000D+00
     .240000000000D+01  .000000000000D+00 -.279396772385D-08  .790000000000D+02
     .540006000000D+06  .400000000000D+01
11 08 12 13  8  0  0.0  .133970752358D-04 -.909494701773D-12  .000000000000D+00
     .600000000000D+02 -.229375000000D+02  .631954894887D-08  .293202315216D+01
    -.123865902424D-05  .902286777273D-02  .744871795177D-05  .515365290451D+04
     .547200000000D+06 -.372529029846D-08  .240646484948D+01 -.122934579849D-06
     .890002801103D+00  .197968750000D+03  .661765983678D+00 -.860357265905D-08
    -.660384650529D-09  .100000000000D+01  .150900000000D+04  .000000000000D+00
     .240000000000D+01  .000000000000D+00 -.121071934700D-07  .600000000000D+02
     .540006000000D+06  .400000000000D+01
12 08 12 13  8  0  0.0 -.334186479449D-03  .284217094304D-11  .000000000000D+00
     .170000000000D+02 -.528125000000D+02  .412910056504D-08 -.298310106124D+01
    -.279210507870D-05  .302953436039D-02  .117737799883D-04  .515376634598D+04
     .547200000000D+06 -.931322574615D-08  .518499295771D+00  .931322574615D-08
     .965744094364D+00  .151625000000D+03 -.831315370022D+00 -.755710049785D-08
     .553951645738D-09  .100000000000D+01  .150900000000D+04  .000000000000D+00
     .240000000000D+01  .000000000000D+00 -.116415321827D-07  .170000000000D+02
     .540006000000D+06  .400000000000D+01
13 08 12 13  8  0  0.0  .280894804746D-03  .147792889038D-11  .000000000000D+00
     .210000000000D+02  .561562500000D+02  .410659962779D-08 -.690283982904D+00
     .289641320705D-05  .360518088564D-02 -.992789864540D-06  .515377842712D+04
     .547200000000D+06 -.800937414169D-07 -.152677160659D+01  .167638063431D-07
     .995057591868D+00  .420906250000D+03  .151654440042D+01 -.833570435840D-08
     .169292766009D-09  .100000000000D+01  .150900000000D+04  .000000000000D+00
     .240000000000D+01  .000000000000D+00 -.111758708954D-07  .210000000000D+02
     .540006000000D+06  .400000000000D+01
14 08 12 13  8  0  0.0 -.182516407222D-03  .500222085975D-11  .000000000000D+00
     .320000000000D+02  .464062500000D+02  .421696136765D-08 -.112923240191D+01
     .255368649960D-05  .442474486772D-02 -.150501728058D-05  .515376565552D+04
     .547200000000D+06  .353902578354D-07 -.154525876129D+01  .149011611938D-07
     .988678740929D+00  .423531250000D+03 -.212321194604D+01 -.833427572747D-08
     .147506144223D-09  .100000000000D+01  .150900000000D+04  .000000000000D+00
     .240000000000D+01  .000000000000D+00 -.931322574615D-08  .320000000000D+02
     .540006000000D+06  .400000000000D+01
15 08 12 13  8  0  0.0 -.225887633860D-03 -.602540239925D-11  .000000000000D+00
     .380000000000D+02  .587500000000D+02  .481091467962D-08 -.449342288110D+00
     .294297933578D-05  .128598895390D-02 -.698491930962D-06  .515374407578D+04
     .547200000000D+06  .186264514923D-08 -.159258037220D+01 -.186264514923D-08
     .956901323650D+00  .389937500000D+03 -.914262768063D+00 -.857928593312D-08
     .148934775160D-09  .100000000000D+01  .150900000000D+04  .000000000000D+00
     .240000000000D+01  .000000000000D+00 -.977888703346D-08  .380000000000D+02
     .540006000000D+06  .400000000000D+01
16 08 12 13  8  0  0.0  .892858952284D-04 -.250111042988D-11  .000000000000D+00
     .580000000000D+02 -.708750000000D+02  .412088593715D-08  .758515576384D+00
    -.368244946003D-05  .484354642686D-02  .121202319860D-04  .515372792244D+04
     .547200000000D+06  .596046447754D-07  .535180201615D+00  .130385160446D-07
     .967292833069D+00  .146250000000D+03 -.382473843159D+00 -.761746015493D-08
     .605025201728D-09  .100000000000D+01  .150900000000D+04  .000000000000D+00
     .240000000000D+01  .000000000000D+00 -.977888703346D-08  .580000000000D+02
     .540006000000D+06  .400000000000D+01
17 08 12 13  8  0  0.0  .419756397605D-04  .682121026330D-12  .000000000000D+00
     .500000000000D+02  .790625000000D+01  .508628329269D-08 -.330705878542D+00
     .368803739548D-06  .401471438818D-02  .541284680367D-05  .515360591125D+04
     .547200000000D+06  .633299350739D-07  .157696179943D+01  .260770320892D-07
     .959076865698D+00  .276125000000D+03 -.279138506032D+01 -.816534011919D-08
     .224652214809D-09  .100000000000D+01  .150900000000D+04  .000000000000D+00
     .340000000000D+01  .000000000000D+00 -.102445483208D-07  .500000000000D+02
     .540006000000D+06  .400000000000D+01
